ONEWEB-0319             
1 49105U 21075AG  25078.54356406  .00000019  00000+0  14663-4 0  9992
2 49105  87.9004  96.4484 0001712 106.4341 253.6979 13.17650340173736
ONEWEB-0323             
1 49106U 21075AH  25078.97213619  .00000131  00000+0  32759-3 0  9998
2 49106  87.8802  81.0455 0001590 112.7906 247.3390 13.12445978174979
ONEWEB-0329             
1 49107U 21075AJ  25078.55201053  .00000032  00000+0  48616-4 0  9992
2 49107  87.9004  96.4513 0001696  95.7013 264.4312 13.17649178173714
ONEWEB-0330             
1 49108U 21075AK  25078.55369381  .00000037  00000+0  63343-4 0  9991
2 49108  87.9005  96.4531 0001648  89.5369 270.5951 13.17649660173755
ONEWEB-0292             
1 49186U 21083A   25078.99475230  .00000276  00000+0  72173-3 0  9990
2 49186  87.8932  50.5322 0001885  89.5218 270.6127 13.13468123172590
ONEWEB-0303             
1 49187U 21083B   25079.03235543 -.00000032  00000+0 -11405-3 0  9991
2 49187  87.9069  65.7462 0001868  94.3835 265.7511 13.18686683171405
ONEWEB-0306             
1 49188U 21083C   25078.87109805 -.00000068  00000+0 -20466-3 0  9990
2 49188  87.9069  65.7630 0001857  80.0692 280.0649 13.18686302170144
ONEWEB-0307             
1 49189U 21083D   25078.91263761  .00000300  00000+0  78746-3 0  9999
2 49189  87.8935  50.5512 0001797  71.4280 288.7045 13.13467310171290
